ONEWEB-0055             
1 45443U 20020V   22132.08345518 -.00000487  00000+0 -14095-2 0  9999
2 45443  87.8834 318.7003 0001581  83.0524 277.0784 13.11417166106406
ONEWEB-0093             
1 45444U 20020W   22131.98248227  .00000235  00000+0  62789-3 0  9990
2 45444  87.8824 318.7471 0001591  80.1099 280.0209 13.11416702106457
ONEWEB-0029             
1 45445U 20020X   22132.08120493 -.00000467  00000+0 -13528-2 0  9992
2 45445  87.8827 318.7122 0001962  79.9706 280.1644 13.11414602106447
ONEWEB-0068             
1 45446U 20020Y   22131.74574654  .00000540  00000+0  14864-2 0  9991
2 45446  87.8824 318.7916 0001566  73.7998 286.3302 13.11417239106337
ONEWEB-0046             
1 45447U 20020Z   22131.43719159  .00000515  00000+0  14184-2 0  9996
2 45447  87.8826 318.8620 0001870  89.4154 270.7188 13.11415729106307
ONEWEB-0063             
1 45448U 20020AA  22131.46634797 -.00000441  00000+0 -12789-2 0  9993
2 45448  87.8819 318.8447 0001984  95.0894 265.0460 13.11415582106393
ONEWEB-0019             
1 45449U 20020AB  22131.74688631  .00000465  00000+0  12767-2 0  9991
2 45449  87.8828 318.7827 0001614  92.4452 267.6861 13.11417777106274
ONEWEB-0094             
1 45450U 20020AC  22131.70506192  .00000070  00000+0  14592-3 0  9991
2 45450  87.9016 303.4800 0001626  93.3972 266.7346 13.17651194109100
ONEWEB-0087             
1 45451U 20020AD  22131.47532466 -.00000470  00000+0 -13617-2 0  9991
2 45451  87.8833 318.8734 0001955  77.6590 282.4757 13.11417795106287
ONEWEB-0082             
1 45452U 20020AE  22132.01165670 -.00000459  00000+0 -13312-2 0  9991
2 45452  87.8826 318.7033 0001664  70.2216 289.9091 13.11416561106454
ONEWEB-0050             
1 45453U 20020AF  22132.05952561  .00002031  00000+0  18127-3 0  9995
2 45453  87.5408 252.3215 0025160 349.6314  10.4395 14.95205908116833
ONEWEB-0034             
1 45454U 20020AG  22132.02960487  .00000216  00000+0  57374-3 0  9999
2 45454  87.8825 318.7214 0001831  82.1237 278.0099 13.11419841106379
ONEWEB-0060             
1 45455U 20020AH  22131.50451230  .00000574  00000+0  15838-2 0  9998
2 45455  87.8828 318.8340 0001838  87.6581 272.4757 13.11417410106259
ONEWEB-0086             
1 45456U 20020AJ  22131.98024038  .00000327  00000+0  88740-3 0  9992
2 45456  87.8824 318.7316 0001709  79.5744 280.5577 13.11415027106371
ONEWEB-0088             
1 45457U 20020AK  22131.49779753  .00000370  00000+0  10081-2 0  9990
2 45457  87.8822 318.8431 0001926  85.0448 275.0900 13.11418134106240
ONEWEB-0102             
1 47258U 20100A   22132.14119818 -.00000251  00000+0 -73314-3 0  9992
2 47258  87.8811 288.1530 0001449  91.2283 268.9012 13.12440330 68363
ONEWEB-0109             
1 47259U 20100B   22131.46662287 -.00000361  00000+0 -10387-2 0  9992
2 47259  87.8852 288.3201 0001527  96.9451 263.1851 13.12444809 68107
ONEWEB-0110             
1 47260U 20100C   22131.94716032  .00000218  00000+0  57057-3 0  9990
2 47260  87.8861 288.1900 0001343  91.6026 268.5257 13.12444788 68339
ONEWEB-0111             
1 47261U 20100D   22132.12965258  .00000121  00000+0  30141-3 0  9996
2 47261  87.8833 288.1624 0001549  93.7218 266.4088 13.12439861 68195
ONEWEB-0114             
1 47262U 20100E   22131.70457828 -.00000120  00000+0 -36865-3 0  9999
2 47262  87.8897 288.2055 0001475 110.9333 249.1954 13.12443443 68093
ONEWEB-0117             
1 47263U 20100F   22131.46892301 -.00000254  00000+0 -74072-3 0  9992
2 47263  87.8853 288.3211 0001561  94.7337 265.3970 13.12444475 68072
ONEWEB-0118             
1 47264U 20100G   22131.95639363  .00000371  00000+0  99556-3 0  9996
2 47264  87.8854 288.1743 0002153 115.0855 245.0498 13.12443532 68334
ONEWEB-0119             
1 47265U 20100H   22131.45046146 -.00000211  00000+0 -62185-3 0  9996
2 47265  87.8807 288.2952 0001596  94.4148 265.7163 13.12443093 68241
ONEWEB-0120             
1 47266U 20100J   22131.70921125 -.00000128  00000+0 -39000-3 0  9991
2 47266  87.8882 288.3039 0001475 103.6859 256.4433 13.12443679 68304
ONEWEB-0121             
1 47267U 20100K   22131.46432151 -.00000348  00000+0 -10036-2 0  9992
2 47267  87.8852 288.3935 0001666  89.7213 270.4107 13.12444624 68188
ONEWEB-0122             
1 47268U 20100L   22131.45739229 -.00000472  00000+0 -13474-2 0  9995
2 47268  87.8892 288.2976 0001528  96.1056 264.0247 13.12442434 68092
ONEWEB-0123             
1 47269U 20100M   22131.45277565 -.00000336  00000+0 -96920-3 0  9993
2 47269  87.8824 288.2929 0001624 100.0480 260.0831 13.12439766 68234
ONEWEB-0124             
1 47270U 20100N   22131.66763276  .00000202  00000+0  52641-3 0  9999
2 47270  87.8927 288.1858 0001754  80.5154 279.6172 13.12441316 68142
ONEWEB-0125             
1 47271U 20100P   22131.87552027  .00000348  00000+0  93185-3 0  9992
2 47271  87.8827 288.2684 0001532 107.1792 252.9504 13.12445478 68234
ONEWEB-0126             
1 47272U 20100Q   22132.12850694  .00000081  00000+0  18890-3 0  9997
2 47272  87.8829 288.2084 0001439 100.0619 260.0672 13.12440687 68331
ONEWEB-0127             
1 47273U 20100R   22131.94022193 -.00000034  00000+0 -13128-3 0  9991
2 47273  87.8855 288.1380 0001688  98.6622 261.4697 13.12445177 68332
ONEWEB-0128             
1 47274U 20100S   22131.73230720  .00000456  00000+0  12318-2 0  9991
2 47274  87.8858 288.2173 0001406  81.8110 278.3178 13.12443309 68326
ONEWEB-0129             
1 47275U 20100T   22131.94252269  .00000090  00000+0  21388-3 0  9999
2 47275  87.8920 288.2219 0001824 154.7408 205.3810 13.12443411 68284
ONEWEB-0130             
1 47276U 20100U   22131.81548642  .00000382  00000+0  10265-2 0  9994
2 47276  87.8857 288.2521 0001597  91.0699 269.0612 13.12441169 68232
ONEWEB-0131             
1 47277U 20100V   22131.66068420  .00000450  00000+0  12167-2 0  9998
2 47277  87.8856 288.2295 0001703  88.9403 271.1920 13.12441110 68251
ONEWEB-0132             
1 47278U 20100W   22131.46200425 -.00000398  00000+0 -11416-2 0  9999
2 47278  87.8818 288.3113 0001516 105.6286 254.5010 13.12443821 68120
ONEWEB-0133             
1 47279U 20100X   22131.85934806 -.00000156  00000+0 -46802-3 0  9990
2 47279  87.8851 288.1753 0001615  97.0349 263.0963 13.12445037 68336
ONEWEB-0134             
1 47280U 20100Y   22131.82702936 -.00000024  00000+0 -10318-3 0  9993
2 47280  87.8863 288.1884 0001456  88.8603 271.2692 13.12440411 68308
ONEWEB-0135             
1 47281U 20100Z   22132.17817432  .00000231  00000+0  60537-3 0  9997
2 47281  87.8851 288.1003 0001449  95.7527 264.3767 13.12442257 68376
ONEWEB-0136             
1 47282U 20100AA  22132.12274657  .00000214  00000+0  56009-3 0  9999
2 47282  87.8905 288.1824 0000737  88.3669 271.7544 13.12443862 68291
ONEWEB-0137             
1 47283U 20100AB  22131.47355574 -.00000239  00000+0 -70105-3 0  9997
2 47283  87.8853 288.2966 0001550 105.4503 254.6797 13.12442631 68118
ONEWEB-0138             
1 47284U 20100AC  22131.44813811 -.00000152  00000+0 -45719-3 0  9995
2 47284  87.8873 288.3117 0001345  97.8978 262.2303 13.12443105 68195
ONEWEB-0139             
1 47285U 20100AD  22132.18280880  .00000345  00000+0  92251-3 0  9997
2 47285  87.8835 288.2236 0001347  91.5585 268.5698 13.12442425 68361
ONEWEB-0140             
1 47286U 20100AE  22132.12735370  .00000077  00000+0  17901-3 0  9992
2 47286  87.8832 288.1701 0001472  93.8707 266.2590 13.12441462 68316
ONEWEB-0141             
1 47287U 20100AF  22131.46547250 -.00000371  00000+0 -10666-2 0  9996
2 47287  87.8862 288.2730 0001895 109.2706 250.8628 13.12439564 68224
ONEWEB-0142             
1 47288U 20100AG  22131.45621395 -.00000339  00000+0 -97730-3 0  9991
2 47288  87.8820 288.3660 0001704 108.9109 251.2204 13.12447516 68214
ONEWEB-0143             
1 47289U 20100AH  22132.17355201  .00000199  00000+0  51752-3 0  9998
2 47289  87.8855 288.1519 0001670  94.9120 265.2199 13.12443744 68287
ONEWEB-0144             
1 47290U 20100AJ  22131.45968048 -.00000461  00000+0 -13173-2 0  9997
2 47290  87.8898 288.2836 0001505  90.1915 269.9386 13.12441222 68116
ONEWEB-0145             
1 47291U 20100AK  22131.73462539  .00000464  00000+0  12545-2 0  9996
2 47291  87.8829 288.2231 0001581  98.4472 261.6836 13.12442842 68346
ONEWEB-0146             
1 47292U 20100AL  22131.72998776  .00000519  00000+0  14067-2 0  9995
2 47292  87.8854 288.2621 0002450  77.8417 282.2986 13.12444584 68254
ONEWEB-0147             
1 47293U 20100AM  22131.47125076 -.00000281  00000+0 -81654-3 0  9998
2 47293  87.8833 288.3042 0000975 102.2238 257.9000 13.12441871 68111
ONEWEB-0115             
1 48042U 21025A   22131.60059775 -.00000284  00000+0 -81402-3 0  9999
2 48042  87.8926 257.6133 0001711  90.0769 270.0556 13.13469138 57004
ONEWEB-0152             
1 48043U 21025B   22132.06886420 -.00000265  00000+0 -76033-3 0  9999
2 48043  87.8977 257.5833 0001547  96.2222 263.9083 13.13467947 57031
ONEWEB-0153             
1 48044U 21025C   22132.04646684  .00000110  00000+0  26760-3 0  9993
2 48044  87.8909 257.6759 0001759 103.2154 256.9171 13.13471189 57025
ONEWEB-0154             
1 48045U 21025D   22132.04422288  .00000082  00000+0  18916-3 0  9998
2 48045  87.9005 257.6477 0001590  96.4603 263.6707 13.13461178 56987
ONEWEB-0116             
1 48046U 21025E   22132.08680391  .00000008  00000+0 -14247-4 0  9997
2 48046  87.8998 257.6263 0002057  92.7546 267.3819 13.13470932 57125
ONEWEB-0150             
1 48047U 21025F   22131.60284539  .00000355  00000+0  93614-3 0  9997
2 48047  87.8987 257.5575 0001612 116.0815 244.0480 13.13467175 56955
ONEWEB-0107             
1 48048U 21025G   22131.60508295 -.00000131  00000+0 -39461-3 0  9990
2 48048  87.8997 257.5868 0001573 121.5615 238.5668 13.13469318 56932
ONEWEB-0101             
1 48049U 21025H   22132.10247813 -.00001063  00000+0 -29449-2 0  9992
2 48049  87.8904 257.5337 0001721  94.5620 265.5706 13.13476279 56973
